IRIDIUM 136             
1 42962U 17061H   24117.70660629  .00000250  00000+0  82101-4 0  9991
2 42962  86.4000 351.8443 0002448  86.1158 274.0317 14.34216271342822
